SL-3 R/B                
1 13403U 82079B   26042.21704795  .00006044  00000+0  24355-3 0  9991
2 13403  81.1445 224.3271 0024170 255.6650 104.1900 15.24404702373669
SL-14 R/B               
1 13553U 82092B   26041.86673591  .00000616  00000+0  66349-4 0  9990
2 13553  82.5706 166.4799 0021154  33.9761  88.0520 14.86636653324944
SL-3 R/B                
1 13819U 83010B   26041.96260163  .00014163  00000+0  29384-3 0  9993
2 13819  81.1026  34.9911 0018123 135.6554 224.6146 15.45393325353818
SL-3 R/B                
1 14208U 83075B   26042.20812612  .00014005  00000+0  37730-3 0  9996
2 14208  97.6134  45.8012 0020745 329.5503  30.4535 15.37734654326086
COSMOS 1536             
1 14699U 84013A   26042.25312586  .00006910  00000+0  28770-3 0  9993
2 14699  82.5470 134.1172 0014644  21.2899 338.8944 15.23471284268592
SL-14 R/B               
1 14820U 84027B   26042.09462369  .00000455  00000+0  49127-4 0  9999
2 14820  82.5395 269.9616 0019365  63.6850 296.6353 14.85949943243683
SL-8 R/B                
1 15483U 85006B   26042.23616589  .00000247  00000+0  90486-4 0  9997
2 15483  74.0468 309.8255 0019425 232.8578 284.3354 14.37770211150222
SL-12 R/B(2)            
1 15772U 85042D   26041.69003892  .00000177  00000+0  10122-3 0  9994
2 15772  71.1088 144.7710 0034806 171.4811 294.1632 14.21974851110558
SL-14 R/B               
1 15945U 85069B   26041.95281456  .00000580  00000+0  62878-4 0  9992
2 15945  82.5241  50.0792 0017219 282.2206  77.7082 14.86401187168863
SL-16 R/B               
1 16182U 85097B   26041.88070441 -.00000176  00000+0 -63929-4 0  9990
2 16182  71.0019 196.9900 0009687 290.9288 178.1996 14.16595963 83438
SL-14 R/B               
1 16496U 86006B   26042.07150413  .00000748  00000+0  76855-4 0  9994
2 16496  82.5262 284.7921 0076708   2.1454 358.0076 14.86779015145254
COSMOS 1743             
1 16719U 86034A   26042.10834259  .00033440  00000+0  46830-3 0  9998
2 16719  82.5328 101.6858 0004853  45.6242 314.5410 15.56614029176119
