CCSDS_OMM_VERS = 2.0
CREATION_DATE  = 
ORIGINATOR     = 

OBJECT_NAME    = SL-3 R/B
OBJECT_ID      = 1982-079B
CENTER_NAME    = EARTH
REF_FRAME      = TEME
TIME_SYSTEM    = UTC
MEAN_ELEMENT_THEORY = SGP/SGP4

EPOCH          = 2026-02-11T05:12:32.942880
MEAN_MOTION    = 15.24404702
ECCENTRICITY   = .00241701
INCLINATION    = 81.1445
RA_OF_ASC_NODE = 224.3271
ARG_OF_PERICENTER = 255.6650
MEAN_ANOMALY   = 104.1900

EPHEMERIS_TYPE = 0
CLASSIFICATION_TYPE = U
NORAD_CAT_ID   = 13403
ELEMENT_SET_NO = 999
REV_AT_EPOCH   = 37366
BSTAR          = .24354755E-3
MEAN_MOTION_DOT = .6044E-4
MEAN_MOTION_DDOT = 0

CCSDS_OMM_VERS = 2.0
CREATION_DATE  = 
ORIGINATOR     = 

OBJECT_NAME    = SL-14 R/B
OBJECT_ID      = 1982-092B
CENTER_NAME    = EARTH
REF_FRAME      = TEME
TIME_SYSTEM    = UTC
MEAN_ELEMENT_THEORY = SGP/SGP4

EPOCH          = 2026-02-10T20:48:05.982624
MEAN_MOTION    = 14.86636653
ECCENTRICITY   = .00211543
INCLINATION    = 82.5706
RA_OF_ASC_NODE = 166.4799
ARG_OF_PERICENTER = 33.9761
MEAN_ANOMALY   = 88.0520

EPHEMERIS_TYPE = 0
CLASSIFICATION_TYPE = U
NORAD_CAT_ID   = 13553
ELEMENT_SET_NO = 999
REV_AT_EPOCH   = 32494
BSTAR          = .66349228E-4
MEAN_MOTION_DOT = .616E-5
MEAN_MOTION_DDOT = 0

CCSDS_OMM_VERS = 2.0
CREATION_DATE  = 
ORIGINATOR     = 

OBJECT_NAME    = SL-3 R/B
OBJECT_ID      = 1983-010B
CENTER_NAME    = EARTH
REF_FRAME      = TEME
TIME_SYSTEM    = UTC
MEAN_ELEMENT_THEORY = SGP/SGP4

EPOCH          = 2026-02-10T23:06:08.780832
MEAN_MOTION    = 15.45393325
ECCENTRICITY   = .00181231
INCLINATION    = 81.1026
RA_OF_ASC_NODE = 34.9911
ARG_OF_PERICENTER = 135.6554
MEAN_ANOMALY   = 224.6146

EPHEMERIS_TYPE = 0
CLASSIFICATION_TYPE = U
NORAD_CAT_ID   = 13819
ELEMENT_SET_NO = 999
REV_AT_EPOCH   = 35381
BSTAR          = .29384356E-3
MEAN_MOTION_DOT = .14163E-3
MEAN_MOTION_DDOT = 0

CCSDS_OMM_VERS = 2.0
CREATION_DATE  = 
ORIGINATOR     = 

OBJECT_NAME    = SL-3 R/B
OBJECT_ID      = 1983-075B
CENTER_NAME    = EARTH
REF_FRAME      = TEME
TIME_SYSTEM    = UTC
MEAN_ELEMENT_THEORY = SGP/SGP4

EPOCH          = 2026-02-11T04:59:42.096768
MEAN_MOTION    = 15.37734654
ECCENTRICITY   = .00207454
INCLINATION    = 97.6134
RA_OF_ASC_NODE = 45.8012
ARG_OF_PERICENTER = 329.5503
MEAN_ANOMALY   = 30.4535

EPHEMERIS_TYPE = 0
CLASSIFICATION_TYPE = U
NORAD_CAT_ID   = 14208
ELEMENT_SET_NO = 999
REV_AT_EPOCH   = 32608
BSTAR          = .37729525E-3
MEAN_MOTION_DOT = .14005E-3
MEAN_MOTION_DDOT = 0

CCSDS_OMM_VERS = 2.0
CREATION_DATE  = 
ORIGINATOR     = 

OBJECT_NAME    = COSMOS 1536
OBJECT_ID      = 1984-013A
CENTER_NAME    = EARTH
REF_FRAME      = TEME
TIME_SYSTEM    = UTC
MEAN_ELEMENT_THEORY = SGP/SGP4

EPOCH          = 2026-02-11T06:04:30.074304
MEAN_MOTION    = 15.23471284
ECCENTRICITY   = .00146446
INCLINATION    = 82.5470
RA_OF_ASC_NODE = 134.1172
ARG_OF_PERICENTER = 21.2899
MEAN_ANOMALY   = 338.8944

EPHEMERIS_TYPE = 0
CLASSIFICATION_TYPE = U
NORAD_CAT_ID   = 14699
ELEMENT_SET_NO = 999
REV_AT_EPOCH   = 26859
BSTAR          = .28770144E-3
MEAN_MOTION_DOT = .691E-4
MEAN_MOTION_DDOT = 0

CCSDS_OMM_VERS = 2.0
CREATION_DATE  = 
ORIGINATOR     = 

OBJECT_NAME    = SL-14 R/B
OBJECT_ID      = 1984-027B
CENTER_NAME    = EARTH
REF_FRAME      = TEME
TIME_SYSTEM    = UTC
MEAN_ELEMENT_THEORY = SGP/SGP4

EPOCH          = 2026-02-11T02:16:15.486816
MEAN_MOTION    = 14.85949943
ECCENTRICITY   = .00193654
INCLINATION    = 82.5395
RA_OF_ASC_NODE = 269.9616
ARG_OF_PERICENTER = 63.6850
MEAN_ANOMALY   = 296.6353

EPHEMERIS_TYPE = 0
CLASSIFICATION_TYPE = U
NORAD_CAT_ID   = 14820
ELEMENT_SET_NO = 999
REV_AT_EPOCH   = 24368
BSTAR          = .49126551E-4
MEAN_MOTION_DOT = .455E-5
MEAN_MOTION_DDOT = 0

CCSDS_OMM_VERS = 2.0
CREATION_DATE  = 
ORIGINATOR     = 

OBJECT_NAME    = SL-8 R/B
OBJECT_ID      = 1985-006B
CENTER_NAME    = EARTH
REF_FRAME      = TEME
TIME_SYSTEM    = UTC
MEAN_ELEMENT_THEORY = SGP/SGP4

EPOCH          = 2026-02-11T05:40:04.732896
MEAN_MOTION    = 14.37770211
ECCENTRICITY   = .00194251
INCLINATION    = 74.0468
RA_OF_ASC_NODE = 309.8255
ARG_OF_PERICENTER = 232.8578
MEAN_ANOMALY   = 284.3354

EPHEMERIS_TYPE = 0
CLASSIFICATION_TYPE = U
NORAD_CAT_ID   = 15483
ELEMENT_SET_NO = 999
REV_AT_EPOCH   = 15022
BSTAR          = .90486376E-4
MEAN_MOTION_DOT = .247E-5
MEAN_MOTION_DDOT = 0

CCSDS_OMM_VERS = 2.0
CREATION_DATE  = 
ORIGINATOR     = 

OBJECT_NAME    = SL-12 R/B(2)
OBJECT_ID      = 1985-042D
CENTER_NAME    = EARTH
REF_FRAME      = TEME
TIME_SYSTEM    = UTC
MEAN_ELEMENT_THEORY = SGP/SGP4

EPOCH          = 2026-02-10T16:33:39.362688
MEAN_MOTION    = 14.21974851
ECCENTRICITY   = .00348067
INCLINATION    = 71.1088
RA_OF_ASC_NODE = 144.7710
ARG_OF_PERICENTER = 171.4811
MEAN_ANOMALY   = 294.1632

EPHEMERIS_TYPE = 0
CLASSIFICATION_TYPE = U
NORAD_CAT_ID   = 15772
ELEMENT_SET_NO = 999
REV_AT_EPOCH   = 11055
BSTAR          = .10122139E-3
MEAN_MOTION_DOT = .177E-5
MEAN_MOTION_DDOT = 0

CCSDS_OMM_VERS = 2.0
CREATION_DATE  = 
ORIGINATOR     = 

OBJECT_NAME    = SL-14 R/B
OBJECT_ID      = 1985-069B
CENTER_NAME    = EARTH
REF_FRAME      = TEME
TIME_SYSTEM    = UTC
MEAN_ELEMENT_THEORY = SGP/SGP4

EPOCH          = 2026-02-10T22:52:03.177984
MEAN_MOTION    = 14.86401187
ECCENTRICITY   = .00172197
INCLINATION    = 82.5241
RA_OF_ASC_NODE = 50.0792
ARG_OF_PERICENTER = 282.2206
MEAN_ANOMALY   = 77.7082

EPHEMERIS_TYPE = 0
CLASSIFICATION_TYPE = U
NORAD_CAT_ID   = 15945
ELEMENT_SET_NO = 999
REV_AT_EPOCH   = 16886
BSTAR          = .62877713E-4
MEAN_MOTION_DOT = .58E-5
MEAN_MOTION_DDOT = 0

CCSDS_OMM_VERS = 2.0
CREATION_DATE  = 
ORIGINATOR     = 

OBJECT_NAME    = SL-16 R/B
OBJECT_ID      = 1985-097B
CENTER_NAME    = EARTH
REF_FRAME      = TEME
TIME_SYSTEM    = UTC
MEAN_ELEMENT_THEORY = SGP/SGP4

EPOCH          = 2026-02-10T21:08:12.861024
MEAN_MOTION    = 14.16595963
ECCENTRICITY   = .00096874
INCLINATION    = 71.0019
RA_OF_ASC_NODE = 196.9900
ARG_OF_PERICENTER = 290.9288
MEAN_ANOMALY   = 178.1996

EPHEMERIS_TYPE = 0
CLASSIFICATION_TYPE = U
NORAD_CAT_ID   = 16182
ELEMENT_SET_NO = 999
REV_AT_EPOCH   = 8343
BSTAR          = -.63928647E-4
MEAN_MOTION_DOT = -.176E-5
MEAN_MOTION_DDOT = 0

CCSDS_OMM_VERS = 2.0
CREATION_DATE  = 
ORIGINATOR     = 

OBJECT_NAME    = SL-14 R/B
OBJECT_ID      = 1986-006B
CENTER_NAME    = EARTH
REF_FRAME      = TEME
TIME_SYSTEM    = UTC
MEAN_ELEMENT_THEORY = SGP/SGP4

EPOCH          = 2026-02-11T01:42:57.956832
MEAN_MOTION    = 14.86779015
ECCENTRICITY   = .00767083
INCLINATION    = 82.5262
RA_OF_ASC_NODE = 284.7921
ARG_OF_PERICENTER = 2.1454
MEAN_ANOMALY   = 358.0076

EPHEMERIS_TYPE = 0
CLASSIFICATION_TYPE = U
NORAD_CAT_ID   = 16496
ELEMENT_SET_NO = 999
REV_AT_EPOCH   = 14525
BSTAR          = .76854966E-4
MEAN_MOTION_DOT = .748E-5
MEAN_MOTION_DDOT = 0

CCSDS_OMM_VERS = 2.0
CREATION_DATE  = 
ORIGINATOR     = 

OBJECT_NAME    = COSMOS 1743
OBJECT_ID      = 1986-034A
CENTER_NAME    = EARTH
REF_FRAME      = TEME
TIME_SYSTEM    = UTC
MEAN_ELEMENT_THEORY = SGP/SGP4

EPOCH          = 2026-02-11T02:36:00.799776
MEAN_MOTION    = 15.56614029
ECCENTRICITY   = .00048539
INCLINATION    = 82.5328
RA_OF_ASC_NODE = 101.6858
ARG_OF_PERICENTER = 45.6242
MEAN_ANOMALY   = 314.5410

EPHEMERIS_TYPE = 0
CLASSIFICATION_TYPE = U
NORAD_CAT_ID   = 16719
ELEMENT_SET_NO = 999
REV_AT_EPOCH   = 17611
BSTAR          = .4683048E-3
MEAN_MOTION_DOT = .3344E-3
MEAN_MOTION_DDOT = 0

